{
    "links": {
        "self": "http://www.neowsapp.com/rest/v1/neo/3696451?api_key=iIulBulltgU6a56xZRHN4H3l9WmuAYTsLGpBGhQ2"
    },
    "id": "3696451",
    "neo_reference_id": "3696451",
    "name": "(2014 WP7)",
    "designation": "2014 WP7",
    "nasa_jpl_url": "http://ssd.jpl.nasa.gov/sbdb.cgi?sstr=3696451",
    "absolute_magnitude_h": 26.6,
    "estimated_diameter": {
        "kilometers": {
            "estimated_diameter_min": 0.0127219879,
            "estimated_diameter_max": 0.0284472297
        },
        "meters": {
            "estimated_diameter_min": 12.7219878539,
            "estimated_diameter_max": 28.4472296503
        },
        "miles": {
            "estimated_diameter_min": 0.0079050743,
            "estimated_diameter_max": 0.0176762835
        },
        "feet": {
            "estimated_diameter_min": 41.7388066307,
            "estimated_diameter_max": 93.330808926
        }
    },
    "is_potentially_hazardous_asteroid": false,
    "close_approach_data": [
        {
            "close_approach_date": "2014-11-17",
            "close_approach_date_full": "2014-Nov-17 09:05",
            "epoch_date_close_approach": 1416215100000,
            "relative_velocity": {
                "kilometers_per_second": "9.3474537961",
                "kilometers_per_hour": "33650.8336658937",
                "miles_per_hour": "20909.3193964549"
            },
            "miss_distance": {
                "astronomical": "0.0380176164",
                "lunar": "14.7888527796",
                "kilometers": "5687354.435917068",
                "miles": "3533958.1746608184"
            },
            "orbiting_body": "Earth"
        }
    ],
    "orbital_data": {
        "orbit_id": "6",
        "orbit_determination_date": "2019-12-04 07:14:03",
        "first_observation_date": "2014-11-18",
        "last_observation_date": "2014-11-28",
        "data_arc_in_days": 10,
        "observations_used": 25,
        "orbit_uncertainty": "7",
        "minimum_orbit_intersection": ".0328551",
        "jupiter_tisserand_invariant": "3.176",
        "epoch_osculation": "2459000.5",
        "eccentricity": ".5931218119838008",
        "semi_major_axis": "2.505491810393606",
        "inclination": "10.36424016194312",
        "ascending_node_longitude": "56.11802856208585",
        "orbital_period": "1448.56473487149",
        "perihelion_distance": "1.019429967902377",
        "perihelion_argument": "353.5027818379433",
        "aphelion_distance": "3.991553652884835",
        "perihelion_time": "2458426.033643750943",
        "mean_anomaly": "142.767446473842",
        "mean_motion": ".2485218584531796",
        "equinox": "J2000",
        "orbit_class": {
            "orbit_class_type": "AMO",
            "orbit_class_description": "Near-Earth asteroid orbits similar to that of 1221 Amor",
            "orbit_class_range": "1.017 AU < q (perihelion) < 1.3 AU"
        }
    },
    "is_sentry_object": false
}